start=new Date('2021-10-08T00:00:00.000Z').valueOf();
sats=[{"DECAY_DATE":null,"MEAN_MOTION_DOT":"-0.00000191","FILE":"3150302","REF_FRAME":"TEME","ARG_OF_PERICENTER":"86.5145","TLE_LINE1":"1 46039U 20055N   21280.92885373 -.00000191  00000-0  60597-5 0  9996","TIME_SYSTEM":"UTC","REV_AT_EPOCH":"6565","EPOCH":"2021-10-07T22:17:32.962272","MEAN_MOTION_DDOT":"0.0000000000000","LAUNCH_DATE":"2020-08-07","CLASSIFICATION_TYPE":"U","MEAN_ELEMENT_THEORY":"SGP4","OBJECT_NAME":"STARLINK-1569","MEAN_ANOMALY":"273.6037","ECCENTRICITY":"0.00016870","APOAPSIS":"548.388","OBJECT_ID":"2020-055N","NORAD_CAT_ID":"46039","OBJECT_TYPE":"PAYLOAD","RCS_SIZE":"LARGE","RA_OF_ASC_NODE":"171.0846","SITE":"AFETR","EPHEMERIS_TYPE":"0","GP_ID":"186509430","COUNTRY_CODE":"US","BSTAR":"0.00000605970000","TLE_LINE2":"2 46039  53.0544 171.0846 0001687  86.5145 273.6037 15.06398061 65652","CENTER_NAME":"EARTH","MEAN_MOTION":"15.06398061","INCLINATION":"53.0544","SEMIMAJOR_AXIS":"6925.355","PERIOD":"95.592","PERIAPSIS":"546.051","ELEMENT_SET_NO":"999"},{"CENTER_NAME":"EARTH","TLE_LINE2":"2 46040  53.0547 171.2485 0001737  74.3513 285.7668 15.06404904 65612","MEAN_MOTION":"15.06404904","SEMIMAJOR_AXIS":"6925.334","INCLINATION":"53.0547","ELEMENT_SET_NO":"999","PERIAPSIS":"545.996","PERIOD":"95.592","RA_OF_ASC_NODE":"171.2485","RCS_SIZE":"LARGE","OBJECT_TYPE":"PAYLOAD","NORAD_CAT_ID":"46040","SITE":"AFETR","COUNTRY_CODE":"US","EPHEMERIS_TYPE":"0","GP_ID":"186509674","BSTAR":"0.00015301000000","OBJECT_NAME":"STARLINK-1576","ECCENTRICITY":"0.00017370","MEAN_ANOMALY":"285.7668","APOAPSIS":"548.401","OBJECT_ID":"2020-055P","FILE":"3150302","REF_FRAME":"TEME","DECAY_DATE":null,"MEAN_MOTION_DOT":"0.00001998","TLE_LINE1":"1 46040U 20055P   21280.89199580  .00001998  00000-0  15301-3 0  9998","ARG_OF_PERICENTER":"74.3513","MEAN_MOTION_DDOT":"0.0000000000000","EPOCH":"2021-10-07T21:24:28.437120","REV_AT_EPOCH":"6561","TIME_SYSTEM":"UTC","MEAN_ELEMENT_THEORY":"SGP4","LAUNCH_DATE":"2020-08-07","CLASSIFICATION_TYPE":"U"},{"OBJECT_TYPE":"PAYLOAD","NORAD_CAT_ID":"46041","RA_OF_ASC_NODE":"171.2359","RCS_SIZE":"LARGE","SITE":"AFETR","GP_ID":"186510431","EPHEMERIS_TYPE":"0","COUNTRY_CODE":"US","BSTAR":"0.00007641200000","TLE_LINE2":"2 46041  53.0550 171.2359 0001873  72.1563 287.9630 15.06402635 65622","CENTER_NAME":"EARTH","MEAN_MOTION":"15.06402635","INCLINATION":"53.0550","SEMIMAJOR_AXIS":"6925.340","PERIAPSIS":"545.908","PERIOD":"95.592","ELEMENT_SET_NO":"999","DECAY_DATE":null,"MEAN_MOTION_DOT":"0.00000857","REF_FRAME":"TEME","FILE":"3150302","TLE_LINE1":"1 46041U 20055Q   21280.89473089  .00000857  00000-0  76412-4 0  9992","ARG_OF_PERICENTER":"72.1563","TIME_SYSTEM":"UTC","REV_AT_EPOCH":"6562","EPOCH":"2021-10-07T21:28:24.748896","MEAN_MOTION_DDOT":"0.0000000000000","LAUNCH_DATE":"2020-08-07","CLASSIFICATION_TYPE":"U","MEAN_ELEMENT_THEORY":"SGP4","OBJECT_NAME":"STARLINK-1580","MEAN_ANOMALY":"287.9630","ECCENTRICITY":"0.00018730","APOAPSIS":"548.503","OBJECT_ID":"2020-055Q"},{"SEMIMAJOR_AXIS":"6925.338","INCLINATION":"53.0546","ELEMENT_SET_NO":"999","PERIAPSIS":"545.938","PERIOD":"95.592","CENTER_NAME":"EARTH","TLE_LINE2":"2 46042  53.0546 171.0140 0001826  73.3466 286.7723 15.06403477 65622","MEAN_MOTION":"15.06403477","COUNTRY_CODE":"US","GP_ID":"186510157","EPHEMERIS_TYPE":"0","BSTAR":"0.00002360700000","RA_OF_ASC_NODE":"171.0140","RCS_SIZE":"LARGE","NORAD_CAT_ID":"46042","OBJECT_TYPE":"PAYLOAD","SITE":"AFETR","APOAPSIS":"548.467","OBJECT_ID":"2020-055R","OBJECT_NAME":"STARLINK-1581","ECCENTRICITY":"0.00018260","MEAN_ANOMALY":"286.7723","EPOCH":"2021-10-07T22:38:46.000608","MEAN_MOTION_DDOT":"0.0000000000000","TIME_SYSTEM":"UTC","REV_AT_EPOCH":"6562","MEAN_ELEMENT_THEORY":"SGP4","LAUNCH_DATE":"2020-08-07","CLASSIFICATION_TYPE":"U","FILE":"3150302","REF_FRAME":"TEME","MEAN_MOTION_DOT":"0.00000070","DECAY_DATE":null,"TLE_LINE1":"1 46042U 20055R   21280.94358797  .00000070  00000-0  23607-4 0  9992","ARG_OF_PERICENTER":"73.3466"},{"OBJECT_ID":"2020-055S","APOAPSIS":"548.379","MEAN_ANOMALY":"291.9741","ECCENTRICITY":"0.00017190","OBJECT_NAME":"STARLINK-1582","LAUNCH_DATE":"2020-08-07","CLASSIFICATION_TYPE":"U","MEAN_ELEMENT_THEORY":"SGP4","TIME_SYSTEM":"UTC","REV_AT_EPOCH":"6565","MEAN_MOTION_DDOT":"0.0000000000000","EPOCH":"2021-10-07T22:28:08.563872","ARG_OF_PERICENTER":"68.1431","TLE_LINE1":"1 46043U 20055S   21280.93621023  .00000793  00000-0  72136-4 0  9990","DECAY_DATE":null,"MEAN_MOTION_DOT":"0.00000793","REF_FRAME":"TEME","FILE":"3150302","PERIOD":"95.592","PERIAPSIS":"545.998","ELEMENT_SET_NO":"999","INCLINATION":"53.0546","SEMIMAJOR_AXIS":"6925.324","MEAN_MOTION":"15.06408140","TLE_LINE2":"2 46043  53.0546 171.0467 0001719  68.1431 291.9741 15.06408140 65653","CENTER_NAME":"EARTH","BSTAR":"0.00007213600000","GP_ID":"186508931","EPHEMERIS_TYPE":"0","COUNTRY_CODE":"US","SITE":"AFETR","OBJECT_TYPE":"PAYLOAD","NORAD_CAT_ID":"46043","RCS_SIZE":"LARGE","RA_OF_ASC_NODE":"171.0467"},{"APOAPSIS":"548.394","OBJECT_ID":"2020-055T","OBJECT_NAME":"STARLINK-1584","MEAN_ANOMALY":"286.4166","ECCENTRICITY":"0.00017190","TIME_SYSTEM":"UTC","REV_AT_EPOCH":"6566","EPOCH":"2021-10-07T22:49:23.387232","MEAN_MOTION_DDOT":"0.0000000000000","CLASSIFICATION_TYPE":"U","LAUNCH_DATE":"2020-08-07","MEAN_ELEMENT_THEORY":"SGP4","DECAY_DATE":null,"MEAN_MOTION_DOT":"0.00002410","REF_FRAME":"TEME","FILE":"3150302","ARG_OF_PERICENTER":"73.7012","TLE_LINE1":"1 46044U 20055T   21280.95096513  .00002410  00000-0  18062-3 0  9998","INCLINATION":"53.0539","SEMIMAJOR_AXIS":"6925.339","PERIOD":"95.592","PERIAPSIS":"546.013","ELEMENT_SET_NO":"999","TLE_LINE2":"2 46044  53.0539 170.9739 0001719  73.7012 286.4166 15.06403154 65664","CENTER_NAME":"EARTH","MEAN_MOTION":"15.06403154","GP_ID":"186510175","EPHEMERIS_TYPE":"0","COUNTRY_CODE":"US","BSTAR":"0.00018062000000","NORAD_CAT_ID":"46044","OBJECT_TYPE":"PAYLOAD","RCS_SIZE":"LARGE","RA_OF_ASC_NODE":"170.9739","SITE":"AFETR"},{"OBJECT_ID":"2020-055U","APOAPSIS":"548.394","MEAN_ANOMALY":"287.7040","ECCENTRICITY":"0.00016930","OBJECT_NAME":"STARLINK-1591","CLASSIFICATION_TYPE":"U","LAUNCH_DATE":"2020-08-07","MEAN_ELEMENT_THEORY":"SGP4","TIME_SYSTEM":"UTC","REV_AT_EPOCH":"6563","MEAN_MOTION_DDOT":"0.0000000000000","EPOCH":"2021-10-07T21:29:47.336928","ARG_OF_PERICENTER":"72.4133","TLE_LINE1":"1 46045U 20055U   21280.89568677  .00004092  00000-0  29344-3 0  9990","MEAN_MOTION_DOT":"0.00004092","DECAY_DATE":null,"REF_FRAME":"TEME","FILE":"3150302","PERIOD":"95.592","PERIAPSIS":"546.050","ELEMENT_SET_NO":"999","INCLINATION":"53.0529","SEMIMAJOR_AXIS":"6925.357","MEAN_MOTION":"15.06397247","TLE_LINE2":"2 46045  53.0529 171.2303 0001693  72.4133 287.7040 15.06397247 65633","CENTER_NAME":"EARTH","BSTAR":"0.00029344000000","EPHEMERIS_TYPE":"0","GP_ID":"186509931","COUNTRY_CODE":"US","SITE":"AFETR","OBJECT_TYPE":"PAYLOAD","NORAD_CAT_ID":"46045","RCS_SIZE":"LARGE","RA_OF_ASC_NODE":"171.2303"},{"OBJECT_NAME":"STARLINK-1514","ECCENTRICITY":"0.00012710","MEAN_ANOMALY":"308.0411","APOAPSIS":"440.479","OBJECT_ID":"2020-055V","FILE":"3150302","REF_FRAME":"TEME","MEAN_MOTION_DOT":"0.00012226","DECAY_DATE":null,"ARG_OF_PERICENTER":"52.0708","TLE_LINE1":"1 46046U 20055V   21280.93045352  .00012226  00000-0  28952-3 0  9998","EPOCH":"2021-10-07T22:19:51.184128","MEAN_MOTION_DDOT":"0.0000000000000","REV_AT_EPOCH":"6584","TIME_SYSTEM":"UTC","MEAN_ELEMENT_THEORY":"SGP4","LAUNCH_DATE":"2020-08-07","CLASSIFICATION_TYPE":"U","CENTER_NAME":"EARTH","TLE_LINE2":"2 46046  53.0542 155.7274 0001271  52.0708 308.0411 15.42202340 65848","MEAN_MOTION":"15.42202340","SEMIMAJOR_AXIS":"6817.748","INCLINATION":"53.0542","ELEMENT_SET_NO":"999","PERIOD":"93.373","PERIAPSIS":"438.746","RCS_SIZE":"LARGE","RA_OF_ASC_NODE":"155.7274","NORAD_CAT_ID":"46046","OBJECT_TYPE":"PAYLOAD","SITE":"AFETR","COUNTRY_CODE":"US","GP_ID":"186510658","EPHEMERIS_TYPE":"0","BSTAR":"0.00028952000000"},{"BSTAR":"-0.00003549100000","COUNTRY_CODE":"US","EPHEMERIS_TYPE":"0","GP_ID":"186509431","SITE":"AFETR","RCS_SIZE":"LARGE","RA_OF_ASC_NODE":"161.1439","NORAD_CAT_ID":"46047","OBJECT_TYPE":"PAYLOAD","ELEMENT_SET_NO":"999","PERIOD":"95.593","PERIAPSIS":"546.078","SEMIMAJOR_AXIS":"6925.403","INCLINATION":"53.0543","MEAN_MOTION":"15.06382327","CENTER_NAME":"EARTH","TLE_LINE2":"2 46047  53.0543 161.1439 0001718  70.4277 289.6898 15.06382327 65796","MEAN_ELEMENT_THEORY":"SGP4","CLASSIFICATION_TYPE":"U","LAUNCH_DATE":"2020-08-07","MEAN_MOTION_DDOT":"0.0000000000000","EPOCH":"2021-10-07T21:57:40.172256","REV_AT_EPOCH":"6579","TIME_SYSTEM":"UTC","ARG_OF_PERICENTER":"70.4277","TLE_LINE1":"1 46047U 20055W   21280.91504829 -.00000810  00000-0 -35491-4 0  9991","FILE":"3150302","REF_FRAME":"TEME","DECAY_DATE":null,"MEAN_MOTION_DOT":"-0.00000810","OBJECT_ID":"2020-055W","APOAPSIS":"548.458","ECCENTRICITY":"0.00017180","MEAN_ANOMALY":"289.6898","OBJECT_NAME":"STARLINK-1524"},{"CENTER_NAME":"EARTH","TLE_LINE2":"2 46048  53.0528 161.1579 0001623  74.9982 285.1186 15.06399142 65774","MEAN_MOTION":"15.06399142","SEMIMAJOR_AXIS":"6925.351","INCLINATION":"53.0528","ELEMENT_SET_NO":"999","PERIOD":"95.592","PERIAPSIS":"546.092","RCS_SIZE":"LARGE","RA_OF_ASC_NODE":"161.1579","OBJECT_TYPE":"PAYLOAD","NORAD_CAT_ID":"46048","SITE":"AFETR","COUNTRY_CODE":"US","GP_ID":"186509675","EPHEMERIS_TYPE":"0","BSTAR":"0.00016220000000","OBJECT_NAME":"STARLINK-1527","ECCENTRICITY":"0.00016230","MEAN_ANOMALY":"285.1186","APOAPSIS":"548.340","OBJECT_ID":"2020-055X","REF_FRAME":"TEME","FILE":"3150302","DECAY_DATE":null,"MEAN_MOTION_DOT":"0.00002135","ARG_OF_PERICENTER":"74.9982","TLE_LINE1":"1 46048U 20055X   21280.91133534  .00002135  00000-0  16220-3 0  9991","EPOCH":"2021-10-07T21:52:19.373376","MEAN_MOTION_DDOT":"0.0000000000000","TIME_SYSTEM":"UTC","REV_AT_EPOCH":"6577","MEAN_ELEMENT_THEORY":"SGP4","CLASSIFICATION_TYPE":"U","LAUNCH_DATE":"2020-08-07"}];
